CCSDS_OMM_VERS = 2.0
CREATION_DATE  = 
ORIGINATOR     = 

OBJECT_NAME    = SL-3 R/B
OBJECT_ID      = 1982-079B
CENTER_NAME    = EARTH
REF_FRAME      = TEME
TIME_SYSTEM    = UTC
MEAN_ELEMENT_THEORY = SGP/SGP4

EPOCH          = 2026-01-25T22:29:38.371488
MEAN_MOTION    = 15.24187424
ECCENTRICITY   = .00245347
INCLINATION    = 81.1448
RA_OF_ASC_NODE = 243.5412
ARG_OF_PERICENTER = 312.7997
MEAN_ANOMALY   = 47.1172

EPHEMERIS_TYPE = 0
CLASSIFICATION_TYPE = U
NORAD_CAT_ID   = 13403
ELEMENT_SET_NO = 999
REV_AT_EPOCH   = 37118
BSTAR          = .33010809E-3
MEAN_MOTION_DOT = .8133E-4
MEAN_MOTION_DDOT = 0

CCSDS_OMM_VERS = 2.0
CREATION_DATE  = 
ORIGINATOR     = 

OBJECT_NAME    = SL-14 R/B
OBJECT_ID      = 1982-092B
CENTER_NAME    = EARTH
REF_FRAME      = TEME
TIME_SYSTEM    = UTC
MEAN_ELEMENT_THEORY = SGP/SGP4

EPOCH          = 2026-01-25T22:09:31.634784
MEAN_MOTION    = 14.86612743
ECCENTRICITY   = .00218625
INCLINATION    = 82.5684
RA_OF_ASC_NODE = 181.3880
ARG_OF_PERICENTER = 83.6561
MEAN_ANOMALY   = 84.2639

EPHEMERIS_TYPE = 0
CLASSIFICATION_TYPE = U
NORAD_CAT_ID   = 13553
ELEMENT_SET_NO = 999
REV_AT_EPOCH   = 32257
BSTAR          = .11208926E-3
MEAN_MOTION_DOT = .1023E-4
MEAN_MOTION_DDOT = 0

CCSDS_OMM_VERS = 2.0
CREATION_DATE  = 
ORIGINATOR     = 

OBJECT_NAME    = SL-3 R/B
OBJECT_ID      = 1983-010B
CENTER_NAME    = EARTH
REF_FRAME      = TEME
TIME_SYSTEM    = UTC
MEAN_ELEMENT_THEORY = SGP/SGP4

EPOCH          = 2026-01-25T12:19:21.792288
MEAN_MOTION    = 15.44836957
ECCENTRICITY   = .00167882
INCLINATION    = 81.1021
RA_OF_ASC_NODE = 55.1277
ARG_OF_PERICENTER = 192.3167
MEAN_ANOMALY   = 167.7669

EPHEMERIS_TYPE = 0
CLASSIFICATION_TYPE = U
NORAD_CAT_ID   = 13819
ELEMENT_SET_NO = 999
REV_AT_EPOCH   = 35127
BSTAR          = .39973831E-3
MEAN_MOTION_DOT = .18887E-3
MEAN_MOTION_DDOT = 0

CCSDS_OMM_VERS = 2.0
CREATION_DATE  = 
ORIGINATOR     = 

OBJECT_NAME    = SL-3 R/B
OBJECT_ID      = 1983-075B
CENTER_NAME    = EARTH
REF_FRAME      = TEME
TIME_SYSTEM    = UTC
MEAN_ELEMENT_THEORY = SGP/SGP4

EPOCH          = 2026-01-25T22:30:03.103488
MEAN_MOTION    = 15.37252621
ECCENTRICITY   = .00231255
INCLINATION    = 97.6129
RA_OF_ASC_NODE = 28.9440
ARG_OF_PERICENTER = 27.6257
MEAN_ANOMALY   = 332.6210

EPHEMERIS_TYPE = 0
CLASSIFICATION_TYPE = U
NORAD_CAT_ID   = 14208
ELEMENT_SET_NO = 999
REV_AT_EPOCH   = 32358
BSTAR          = .47821018E-3
MEAN_MOTION_DOT = .17538E-3
MEAN_MOTION_DDOT = 0

CCSDS_OMM_VERS = 2.0
CREATION_DATE  = 
ORIGINATOR     = 

OBJECT_NAME    = COSMOS 1536
OBJECT_ID      = 1984-013A
CENTER_NAME    = EARTH
REF_FRAME      = TEME
TIME_SYSTEM    = UTC
MEAN_ELEMENT_THEORY = SGP/SGP4

EPOCH          = 2026-01-25T18:22:37.639488
MEAN_MOTION    = 15.23200057
ECCENTRICITY   = .00156913
INCLINATION    = 82.5466
RA_OF_ASC_NODE = 150.4842
ARG_OF_PERICENTER = 75.5943
MEAN_ANOMALY   = 284.7034

EPHEMERIS_TYPE = 0
CLASSIFICATION_TYPE = U
NORAD_CAT_ID   = 14699
ELEMENT_SET_NO = 999
REV_AT_EPOCH   = 26608
BSTAR          = .42690818E-3
MEAN_MOTION_DOT = .10164E-3
MEAN_MOTION_DDOT = 0

CCSDS_OMM_VERS = 2.0
CREATION_DATE  = 
ORIGINATOR     = 

OBJECT_NAME    = SL-14 R/B
OBJECT_ID      = 1984-027B
CENTER_NAME    = EARTH
REF_FRAME      = TEME
TIME_SYSTEM    = UTC
MEAN_ELEMENT_THEORY = SGP/SGP4

EPOCH          = 2026-01-26T00:00:50.578560
MEAN_MOTION    = 14.85931836
ECCENTRICITY   = .00194076
INCLINATION    = 82.5423
RA_OF_ASC_NODE = 285.0551
ARG_OF_PERICENTER = 112.7456
MEAN_ANOMALY   = 247.5815

EPHEMERIS_TYPE = 0
CLASSIFICATION_TYPE = U
NORAD_CAT_ID   = 14820
ELEMENT_SET_NO = 999
REV_AT_EPOCH   = 24129
BSTAR          = .92888794E-4
MEAN_MOTION_DOT = .837E-5
MEAN_MOTION_DDOT = 0

CCSDS_OMM_VERS = 2.0
CREATION_DATE  = 
ORIGINATOR     = 

OBJECT_NAME    = SL-8 R/B
OBJECT_ID      = 1985-006B
CENTER_NAME    = EARTH
REF_FRAME      = TEME
TIME_SYSTEM    = UTC
MEAN_ELEMENT_THEORY = SGP/SGP4

EPOCH          = 2026-01-25T20:36:12.978720
MEAN_MOTION    = 14.37757761
ECCENTRICITY   = .00197636
INCLINATION    = 74.0474
RA_OF_ASC_NODE = 339.9575
ARG_OF_PERICENTER = 265.2802
MEAN_ANOMALY   = 115.9701

EPHEMERIS_TYPE = 0
CLASSIFICATION_TYPE = U
NORAD_CAT_ID   = 15483
ELEMENT_SET_NO = 999
REV_AT_EPOCH   = 14787
BSTAR          = .18945204E-3
MEAN_MOTION_DOT = .545E-5
MEAN_MOTION_DDOT = 0

CCSDS_OMM_VERS = 2.0
CREATION_DATE  = 
ORIGINATOR     = 

OBJECT_NAME    = SL-12 R/B(2)
OBJECT_ID      = 1985-042D
CENTER_NAME    = EARTH
REF_FRAME      = TEME
TIME_SYSTEM    = UTC
MEAN_ELEMENT_THEORY = SGP/SGP4

EPOCH          = 2026-01-25T16:52:13.819008
MEAN_MOTION    = 14.21967794
ECCENTRICITY   = .00358128
INCLINATION    = 71.1072
RA_OF_ASC_NODE = 178.5432
ARG_OF_PERICENTER = 196.0833
MEAN_ANOMALY   = 174.9104

EPHEMERIS_TYPE = 0
CLASSIFICATION_TYPE = U
NORAD_CAT_ID   = 15772
ELEMENT_SET_NO = 999
REV_AT_EPOCH   = 10828
BSTAR          = .1068246E-3
MEAN_MOTION_DOT = .19E-5
MEAN_MOTION_DDOT = 0

CCSDS_OMM_VERS = 2.0
CREATION_DATE  = 
ORIGINATOR     = 

OBJECT_NAME    = SL-14 R/B
OBJECT_ID      = 1985-069B
CENTER_NAME    = EARTH
REF_FRAME      = TEME
TIME_SYSTEM    = UTC
MEAN_ELEMENT_THEORY = SGP/SGP4

EPOCH          = 2026-01-25T12:38:59.000064
MEAN_MOTION    = 14.86380136
ECCENTRICITY   = .0018202
INCLINATION    = 82.5245
RA_OF_ASC_NODE = 65.5316
ARG_OF_PERICENTER = 340.0448
MEAN_ANOMALY   = 20.0054

EPHEMERIS_TYPE = 0
CLASSIFICATION_TYPE = U
NORAD_CAT_ID   = 15945
ELEMENT_SET_NO = 999
REV_AT_EPOCH   = 16642
BSTAR          = .86241E-4
MEAN_MOTION_DOT = .787E-5
MEAN_MOTION_DDOT = 0

CCSDS_OMM_VERS = 2.0
CREATION_DATE  = 
ORIGINATOR     = 

OBJECT_NAME    = SL-16 R/B
OBJECT_ID      = 1985-097B
CENTER_NAME    = EARTH
REF_FRAME      = TEME
TIME_SYSTEM    = UTC
MEAN_ELEMENT_THEORY = SGP/SGP4

EPOCH          = 2026-01-25T19:58:41.837088
MEAN_MOTION    = 14.16590970
ECCENTRICITY   = .00090178
INCLINATION    = 71.0000
RA_OF_ASC_NODE = 230.7771
ARG_OF_PERICENTER = 310.2536
MEAN_ANOMALY   = 61.2955

EPHEMERIS_TYPE = 0
CLASSIFICATION_TYPE = U
NORAD_CAT_ID   = 16182
ELEMENT_SET_NO = 999
REV_AT_EPOCH   = 8116
BSTAR          = .45327224E-4
MEAN_MOTION_DOT = .43E-6
MEAN_MOTION_DDOT = 0

CCSDS_OMM_VERS = 2.0
CREATION_DATE  = 
ORIGINATOR     = 

OBJECT_NAME    = SL-14 R/B
OBJECT_ID      = 1986-006B
CENTER_NAME    = EARTH
REF_FRAME      = TEME
TIME_SYSTEM    = UTC
MEAN_ELEMENT_THEORY = SGP/SGP4

EPOCH          = 2026-01-25T17:12:53.901792
MEAN_MOTION    = 14.86746625
ECCENTRICITY   = .00780065
INCLINATION    = 82.5286
RA_OF_ASC_NODE = 300.1783
ARG_OF_PERICENTER = 55.7939
MEAN_ANOMALY   = 305.0638

EPHEMERIS_TYPE = 0
CLASSIFICATION_TYPE = U
NORAD_CAT_ID   = 16496
ELEMENT_SET_NO = 999
REV_AT_EPOCH   = 14282
BSTAR          = .13653521E-3
MEAN_MOTION_DOT = .1311E-4
MEAN_MOTION_DDOT = 0

CCSDS_OMM_VERS = 2.0
CREATION_DATE  = 
ORIGINATOR     = 

OBJECT_NAME    = COSMOS 1743
OBJECT_ID      = 1986-034A
CENTER_NAME    = EARTH
REF_FRAME      = TEME
TIME_SYSTEM    = UTC
MEAN_ELEMENT_THEORY = SGP/SGP4

EPOCH          = 2026-01-25T17:01:36.127488
MEAN_MOTION    = 15.55324400
ECCENTRICITY   = .00054324
INCLINATION    = 82.5348
RA_OF_ASC_NODE = 118.8213
ARG_OF_PERICENTER = 93.2735
MEAN_ANOMALY   = 266.9141

EPHEMERIS_TYPE = 0
CLASSIFICATION_TYPE = U
NORAD_CAT_ID   = 16719
ELEMENT_SET_NO = 999
REV_AT_EPOCH   = 17356
BSTAR          = .65947381E-3
MEAN_MOTION_DOT = .4496E-3
MEAN_MOTION_DDOT = 0

