SL-3 R/B                
1 13403U 82079B   26025.93724967  .00008133  00000+0  33011-3 0  9994
2 13403  81.1448 243.5412 0024534 312.7997  47.1172 15.24187424371186
SL-14 R/B               
1 13553U 82092B   26025.92328281  .00001023  00000+0  11209-3 0  9999
2 13553  82.5684 181.3880 0021862  83.6561  84.2639 14.86612743322572
SL-3 R/B                
1 13819U 83010B   26025.51344667  .00018887  00000+0  39974-3 0  9991
2 13819  81.1021  55.1277 0016788 192.3167 167.7669 15.44836957351275
SL-3 R/B                
1 14208U 83075B   26025.93753592  .00017538  00000+0  47821-3 0  9994
2 14208  97.6129  28.9440 0023125  27.6257 332.6210 15.37252621323582
COSMOS 1536             
1 14699U 84013A   26025.76571342  .00010164  00000+0  42691-3 0  9991
2 14699  82.5466 150.4842 0015691  75.5943 284.7034 15.23200057266086
SL-14 R/B               
1 14820U 84027B   26026.00058540  .00000837  00000+0  92889-4 0  9991
2 14820  82.5423 285.0551 0019407 112.7456 247.5815 14.85931836241292
SL-8 R/B                
1 15483U 85006B   26025.85848355  .00000545  00000+0  18945-3 0  9994
2 15483  74.0474 339.9575 0019763 265.2802 115.9701 14.37757761147870
SL-12 R/B(2)            
1 15772U 85042D   26025.70293772  .00000190  00000+0  10682-3 0  9992
2 15772  71.1072 178.5432 0035812 196.0833 174.9104 14.21967794108286
SL-14 R/B               
1 15945U 85069B   26025.52707176  .00000787  00000+0  86241-4 0  9998
2 15945  82.5245  65.5316 0018202 340.0448  20.0054 14.86380136166424
SL-16 R/B               
1 16182U 85097B   26025.83242867  .00000043  00000+0  45327-4 0  9993
2 16182  71.0000 230.7771 0009017 310.2536  61.2955 14.16590970 81168
SL-14 R/B               
1 16496U 86006B   26025.71729053  .00001311  00000+0  13654-3 0  9992
2 16496  82.5286 300.1783 0078006  55.7939 305.0638 14.86746625142821
COSMOS 1743             
1 16719U 86034A   26025.70944592  .00044960  00000+0  65947-3 0  9996
2 16719  82.5348 118.8213 0005432  93.2735 266.9141 15.55324400173563
